OBJECT_NAME,OBJECT_ID,EPOCH,MEAN_MOTION,ECCENTRICITY,INCLINATION,RA_OF_ASC_NODE,ARG_OF_PERICENTER,MEAN_ANOMALY,EPHEMERIS_TYPE,CLASSIFICATION_TYPE,NORAD_CAT_ID,ELEMENT_SET_NO,REV_AT_EPOCH,BSTAR,MEAN_MOTION_DOT,MEAN_MOTION_DDOT
GSAT0217 (GALILEO 21),2017-079C,2023-01-30T22:39:59.072544,1.70474059,.0003326,55.6023,255.4582,341.3156,18.7418,0,U,43057,999,3196,0,.48E-6,0
GSAT0218 (GALILEO 22),2017-079D,2023-02-01T08:06:12.126240,1.70474214,.0002924,55.6018,255.4172,319.4414,40.6115,0,U,43058,999,3198,0,.54E-6,0
GCOM-C (SHIKISAI),2017-082A,2023-02-01T05:26:20.275584,14.27265622,.000119,98.6236,107.6824,102.3767,257.7547,0,U,43065,999,26620,.76677E-4,.144E-5,0
IRIDIUM 135,2017-083A,2023-02-01T07:38:47.843520,14.34219279,.0001921,86.3976,116.9007,94.0443,266.0972,0,U,43070,999,26758,.90505E-4,.273E-5,0
IRIDIUM 138,2017-083B,2023-02-01T06:34:52.124160,14.34219979,.0002344,86.3965,116.6993,98.9998,261.1463,0,U,43071,999,26756,.93799E-4,.282E-5,0
IRIDIUM 116,2017-083C,2023-02-01T07:29:40.547904,14.34218612,.0002007,86.3975,116.9039,102.0918,258.0502,0,U,43072,999,26760,.93658E-4,.282E-5,0
IRIDIUM 130,2017-083D,2023-02-01T06:43:59.153664,14.34219883,.0002272,86.3986,117.0725,100.5883,259.5569,0,U,43073,999,26754,.9283E-4,.28E-5,0
IRIDIUM 151,2017-083E,2023-02-01T07:47:55.902912,14.34220324,.0002029,86.3977,116.9283,103.0876,257.0546,0,U,43074,999,26757,.92296E-4,.278E-5,0
IRIDIUM 134,2017-083F,2023-02-01T07:02:16.106208,14.34219520,.0002264,86.3978,116.9324,91.7591,268.3864,0,U,43075,999,26753,.93297E-4,.281E-5,0
IRIDIUM 137,2017-083G,2023-02-02T03:26:06.822528,14.34219429,.0002027,86.3979,116.6465,100.7994,259.3430,0,U,43076,999,26772,.92257E-4,.278E-5,0
IRIDIUM 141,2017-083H,2023-02-01T07:11:23.896032,14.34220036,.0002244,86.3975,116.8984,100.5360,259.6089,0,U,43077,999,26760,.93431E-4,.281E-5,0
IRIDIUM 153,2017-083J,2023-02-02T03:48:34.767072,14.34216331,.0002449,86.3937,84.9620,97.4484,262.6990,0,U,43078,999,26883,.84394E-4,.256E-5,0
IRIDIUM 131,2017-083K,2023-02-01T06:53:08.437344,14.34218763,.0002306,86.3983,117.0075,99.0251,261.1206,0,U,43079,999,26753,.9382E-4,.283E-5,0
LKW-2,2017-084A,2023-02-02T03:48:42.043680,15.23301962,.0001612,97.2849,105.2166,179.4503,264.3942,0,U,43080,999,28423,.3003E-3,.7058E-4,0
YAOGAN-30 G,2017-085A,2023-02-02T03:39:10.742688,14.91374028,.0005422,34.9995,27.1709,265.5695,94.4355,0,U,43081,999,27821,.27619E-3,.2782E-4,0
YAOGAN-30 H,2017-085B,2023-02-02T02:35:10.924512,14.91405234,.000349,34.9974,27.6133,110.0461,249.9182,0,U,43082,999,27820,.39106E-3,.3954E-4,0
YAOGAN-30 J,2017-085C,2023-02-02T03:05:18.151584,14.91360506,.0006764,34.9993,27.8464,256.2107,103.7826,0,U,43083,999,27821,.27573E-3,.2777E-4,0
SUPERVIEW-1 03,2018-002A,2023-02-02T04:17:20.550048,15.20227055,.0005854,97.4228,112.9078,35.0613,22.8223,0,U,43099,999,28016,.3602E-3,.7747E-4,0
SUPERVIEW-1 04,2018-002B,2023-02-02T03:55:40.019232,15.20246507,.0000883,97.4245,113.0867,24.1170,30.8338,0,U,43100,999,28016,.35809E-3,.7702E-4,0
BEIDOU-3 M3,2018-003A,2023-02-01T06:22:00.554016,1.86232351,.000414,55.2274,344.8470,42.7725,101.3123,0,U,43107,999,3441,0,-.116E-5,0
BEIDOU-3 M4,2018-003B,2023-02-02T03:23:43.367424,1.86230804,.0004062,55.2225,344.8054,271.7169,142.4130,0,U,43108,999,3443,0,-.114E-5,0
CARTOSAT-2F,2018-004A,2023-02-02T03:52:35.200992,15.19344621,.0004134,97.4196,95.0034,323.4146,125.5025,0,U,43111,999,28042,.23391E-3,.4877E-4,0
LEO VANTAGE 1,2018-004C,2023-02-01T07:29:01.114944,14.55110818,.0396369,99.2408,141.9252,223.1783,133.7699,0,U,43113,999,25750,.42194E-3,.5286E-4,0
ICEYE-X1,2018-004D,2023-02-02T03:27:41.787360,15.35104752,.0006723,97.3402,109.2738,251.8259,108.2253,0,U,43114,999,28138,.59472E-3,.20223E-3,0
CARBONITE 2,2018-004E,2023-02-02T03:22:55.267680,15.27464773,.0007501,97.3343,104.8687,268.3812,91.6568,0,U,43115,999,28113,.25654E-3,.6827E-4,0
INS-1C,2018-004F,2023-02-02T03:13:51.301056,15.38039354,.0006107,97.3534,113.2692,251.2542,108.8040,0,U,43116,999,28152,.67816E-3,.25367E-3,0
CORVUS BC3,2018-004H,2023-02-01T04:47:44.698560,15.32010816,.0007154,97.3388,107.2439,272.3342,87.7080,0,U,43118,999,28117,.43774E-3,.13471E-3,0
FLOCK 3P'-3,2018-004J,2023-02-01T10:36:28.523520,15.36574666,.0007222,97.3485,109.4107,276.2474,83.7947,0,U,43119,999,28122,.13004E-2,.46609E-3,0
FLOCK 3P'-2,2018-004K,2023-02-01T04:06:36.415584,15.34093653,.0007225,97.3524,108.5154,279.9313,80.1114,0,U,43120,999,28113,.1026E-2,.33908E-3,0
FLOCK 3P'-4,2018-004M,2023-02-01T05:01:04.370304,15.34315092,.0006493,97.3533,108.7780,282.7303,77.3215,0,U,43122,999,28114,.92765E-3,.30848E-3,0
LEMUR-2-MCCAFFERTY,2018-004N,2023-02-01T13:27:42.997248,15.54371553,.0005725,97.3538,119.2272,255.7774,104.2844,0,U,43123,999,28188,.1373E-2,.90805E-3,0
