GSAT0217 (GALILEO 21)   
1 43057U 17079C   23030.94443371  .00000048  00000+0  00000+0 0  9996
2 43057  55.6023 255.4582 0003326 341.3156  18.7418  1.70474059 31965
GSAT0218 (GALILEO 22)   
1 43058U 17079D   23032.33764035  .00000054  00000+0  00000+0 0  9992
2 43058  55.6018 255.4172 0002924 319.4414  40.6115  1.70474214 31984
GCOM-C (SHIKISAI)       
1 43065U 17082A   23032.22662356  .00000144  00000+0  76677-4 0  9993
2 43065  98.6236 107.6824 0001190 102.3767 257.7547 14.27265622266209
IRIDIUM 135             
1 43070U 17083A   23032.31860930  .00000273  00000+0  90505-4 0  9997
2 43070  86.3976 116.9007 0001921  94.0443 266.0972 14.34219279267588
IRIDIUM 138             
1 43071U 17083B   23032.27421440  .00000282  00000+0  93799-4 0  9990
2 43071  86.3965 116.6993 0002344  98.9998 261.1463 14.34219979267562
IRIDIUM 116             
1 43072U 17083C   23032.31227486  .00000282  00000+0  93658-4 0  9994
2 43072  86.3975 116.9039 0002007 102.0918 258.0502 14.34218612267600
IRIDIUM 130             
1 43073U 17083D   23032.28054576  .00000280  00000+0  92830-4 0  9998
2 43073  86.3986 117.0725 0002272 100.5883 259.5569 14.34219883267548
IRIDIUM 151             
1 43074U 17083E   23032.32495258  .00000278  00000+0  92296-4 0  9993
2 43074  86.3977 116.9283 0002029 103.0876 257.0546 14.34220324267579
IRIDIUM 134             
1 43075U 17083F   23032.29324197  .00000281  00000+0  93297-4 0  9999
2 43075  86.3978 116.9324 0002264  91.7591 268.3864 14.34219520267535
IRIDIUM 137             
1 43076U 17083G   23033.14313452  .00000278  00000+0  92257-4 0  9998
2 43076  86.3979 116.6465 0002027 100.7994 259.3430 14.34219429267723
IRIDIUM 141             
1 43077U 17083H   23032.29958213  .00000281  00000+0  93431-4 0  9993
2 43077  86.3975 116.8984 0002244 100.5360 259.6089 14.34220036267600
IRIDIUM 153             
1 43078U 17083J   23033.15873573  .00000256  00000+0  84394-4 0  9995
2 43078  86.3937  84.9620 0002449  97.4484 262.6990 14.34216331268833
IRIDIUM 131             
1 43079U 17083K   23032.28690321  .00000283  00000+0  93820-4 0  9991
2 43079  86.3983 117.0075 0002306  99.0251 261.1206 14.34218763267530
LKW-2                   
1 43080U 17084A   23033.15881995  .00007058  00000+0  30030-3 0  9990
2 43080  97.2849 105.2166 0001612 179.4503 264.3942 15.23301962284237
YAOGAN-30 G             
1 43081U 17085A   23033.15220767  .00002782  00000+0  27619-3 0  9994
2 43081  34.9995  27.1709 0005422 265.5695  94.4355 14.91374028278213
YAOGAN-30 H             
1 43082U 17085B   23033.10776533  .00003954  00000+0  39106-3 0  9993
2 43082  34.9974  27.6133 0003490 110.0461 249.9182 14.91405234278203
YAOGAN-30 J             
1 43083U 17085C   23033.12868231  .00002777  00000+0  27573-3 0  9990
2 43083  34.9993  27.8464 0006764 256.2107 103.7826 14.91360506278216
SUPERVIEW-1 03          
1 43099U 18002A   23033.17871007  .00007747  00000+0  36020-3 0  9996
2 43099  97.4228 112.9078 0005854  35.0613  22.8223 15.20227055280162
SUPERVIEW-1 04          
1 43100U 18002B   23033.16365763  .00007702  00000+0  35809-3 0  9990
2 43100  97.4245 113.0867 0000883  24.1170  30.8338 15.20246507280165
BEIDOU-3 M3             
1 43107U 18003A   23032.26528419 -.00000116  00000+0  00000+0 0  9991
2 43107  55.2274 344.8470 0004140  42.7725 101.3123  1.86232351 34412
BEIDOU-3 M4             
1 43108U 18003B   23033.14147416 -.00000114  00000+0  00000+0 0  9992
2 43108  55.2225 344.8054 0004062 271.7169 142.4130  1.86230804 34433
CARTOSAT-2F             
1 43111U 18004A   23033.16151853  .00004877  00000+0  23391-3 0  9990
2 43111  97.4196  95.0034 0004134 323.4146 125.5025 15.19344621280426
LEO VANTAGE 1           
1 43113U 18004C   23032.31181846  .00005286  00000+0  42194-3 0  9990
2 43113  99.2408 141.9252 0396369 223.1783 133.7699 14.55110818257503
ICEYE-X1                
1 43114U 18004D   23033.14423365  .00020223  00000+0  59472-3 0  9993
2 43114  97.3402 109.2738 0006723 251.8259 108.2253 15.35104752281386
CARBONITE 2             
1 43115U 18004E   23033.14091745  .00006827  00000+0  25654-3 0  9996
2 43115  97.3343 104.8687 0007501 268.3812  91.6568 15.27464773281138
INS-1C                  
1 43116U 18004F   23033.13462154  .00025367  00000+0  67816-3 0  9998
2 43116  97.3534 113.2692 0006107 251.2542 108.8040 15.38039354281527
CORVUS BC3              
1 43118U 18004H   23032.19982290  .00013471  00000+0  43774-3 0  9993
2 43118  97.3388 107.2439 0007154 272.3342  87.7080 15.32010816281179
FLOCK 3P'-3             
1 43119U 18004J   23032.44199680  .00046609  00000+0  13004-2 0  9996
2 43119  97.3485 109.4107 0007222 276.2474  83.7947 15.36574666281225
FLOCK 3P'-2             
1 43120U 18004K   23032.17125481  .00033908  00000+0  10260-2 0  9995
2 43120  97.3524 108.5154 0007225 279.9313  80.1114 15.34093653281135
FLOCK 3P'-4             
1 43122U 18004M   23032.20907836  .00030848  00000+0  92765-3 0  9994
2 43122  97.3533 108.7780 0006493 282.7303  77.3215 15.34315092281146
LEMUR-2-MCCAFFERTY      
1 43123U 18004N   23032.56091432  .00090805  00000+0  13730-2 0  9993
2 43123  97.3538 119.2272 0005725 255.7774 104.2844 15.54371553281889
